{
  "type": "FeatureCollection",
  "features": [
    {
      "type": "Feature",
      "properties": {
        "norad_id": 40010,
        "name": "KAZEOSAT 2",
        "group": "resource",
        "lat": 74.02026450667677,
        "lon": 173.14595913119052,
        "alt_km": 606.5089871562668,
        "timestamp": "2025-12-22T22:44:20.607798+00:00",
        "meta_object_name": "KAZEOSAT 2",
        "meta_object_id": "2014-033A",
        "meta_epoch": "2025-12-22T14:18:48.576384",
        "meta_mean_motion": 14.85182577,
        "meta_eccentricity": 0.00085193,
        "meta_inclination": 97.5494,
        "meta_ra_of_asc_node": 200.4016,
        "meta_arg_of_pericenter": 172.4864,
        "meta_mean_anomaly": 187.6481,
        "meta_ephemeris_type": 0,
        "meta_classification_type": "U",
        "meta_norad_cat_id": 40010,
        "meta_element_set_no": 999,
        "meta_rev_at_epoch": 62274,
        "meta_bstar": 9.2701321e-05,
        "meta_mean_motion_dot": 7.44e-06,
        "meta_mean_motion_ddot": 0,
        "tle_line1": "1 40010U 14033A   25356.59639556  .00000744  00000+0  92701-4 0  9992",
        "tle_line2": "2 40010  97.5494 200.4016 0008519 172.4864 187.6481 14.85182577622747"
      },
      "geometry": {
        "type": "Point",
        "coordinates": [
          173.14595913119052,
          74.02026450667677
        ]
      }
    },
    {
      "type": "Feature",
      "properties": {
        "norad_id": 40011,
        "name": "HODOYOSHI-4",
        "group": "resource",
        "lat": -68.0709463765008,
        "lon": -13.88258685858596,
        "alt_km": 610.9083197132513,
        "timestamp": "2025-12-22T22:44:20.607808+00:00",
        "meta_object_name": "HODOYOSHI-4",
        "meta_object_id": "2014-033B",
        "meta_epoch": "2025-12-22T13:33:03.466944",
        "meta_mean_motion": 14.87516151,
        "meta_eccentricity": 0.00239597,
        "meta_inclination": 97.5407,
        "meta_ra_of_asc_node": 184.9638,
        "meta_arg_of_pericenter": 167.5134,
        "meta_mean_anomaly": 192.6682,
        "meta_ephemeris_type": 0,
        "meta_classification_type": "U",
        "meta_norad_cat_id": 40011,
        "meta_element_set_no": 999,
        "meta_rev_at_epoch": 62254,
        "meta_bstar": 0.00021412606,
        "meta_mean_motion_dot": 1.9e-05,
        "meta_mean_motion_ddot": 0,
        "tle_line1": "1 40011U 14033B   25356.56462346  .00001900  00000+0  21413-3 0  9997",
        "tle_line2": "2 40011  97.5407 184.9638 0023959 167.5134 192.6682 14.87516151622546"
      },
      "geometry": {
        "type": "Point",
        "coordinates": [
          -13.88258685858596,
          -68.0709463765008
        ]
      }
    },
    {
      "type": "Feature",
      "properties": {
        "norad_id": 40013,
        "name": "DEIMOS-2",
        "group": "resource",
        "lat": -66.78268160827797,
        "lon": 34.25896657254525,
        "alt_km": 596.6740871378279,
        "timestamp": "2025-12-22T22:44:20.607819+00:00",
        "meta_object_name": "DEIMOS-2",
        "meta_object_id": "2014-033D",
        "meta_epoch": "2025-12-22T15:11:52.564992",
        "meta_mean_motion": 14.93013541,
        "meta_eccentricity": 0.00014937,
        "meta_inclination": 97.6066,
        "meta_ra_of_asc_node": 232.1071,
        "meta_arg_of_pericenter": 102.1828,
        "meta_mean_anomaly": 257.956,
        "meta_ephemeris_type": 0,
        "meta_classification_type": "U",
        "meta_norad_cat_id": 40013,
        "meta_element_set_no": 999,
        "meta_rev_at_epoch": 61137,
        "meta_bstar": 0.00015223626,
        "meta_mean_motion_dot": 1.528e-05,
        "meta_mean_motion_ddot": 0,
        "tle_line1": "1 40013U 14033D   25356.63324728  .00001528  00000+0  15224-3 0  9997",
        "tle_line2": "2 40013  97.6066 232.1071 0001493 102.1828 257.9560 14.93013541611372"
      },
      "geometry": {
        "type": "Point",
        "coordinates": [
          34.25896657254525,
          -66.78268160827797
        ]
      }
    },
    {
      "type": "Feature",
      "properties": {
        "norad_id": 40015,
        "name": "HODOYOSHI-3",
        "group": "resource",
        "lat": 74.10021602947411,
        "lon": 134.30401123876948,
        "alt_km": 623.6024830548013,
        "timestamp": "2025-12-22T22:44:20.607829+00:00",
        "meta_object_name": "HODOYOSHI-3",
        "meta_object_id": "2014-033F",
        "meta_epoch": "2025-12-22T11:04:28.563744",
        "meta_mean_motion": 14.84838208,
        "meta_eccentricity": 0.00323542,
        "meta_inclination": 97.6205,
        "meta_ra_of_asc_node": 161.874,
        "meta_arg_of_pericenter": 214.8788,
        "meta_mean_anomaly": 145.0307,
        "meta_ephemeris_type": 0,
        "meta_classification_type": "U",
        "meta_norad_cat_id": 40015,
        "meta_element_set_no": 999,
        "meta_rev_at_epoch": 62139,
        "meta_bstar": 0.00018203561,
        "meta_mean_motion_dot": 1.508e-05,
        "meta_mean_motion_ddot": 0,
        "tle_line1": "1 40015U 14033F   25356.46144171  .00001508  00000+0  18204-3 0  9991",
        "tle_line2": "2 40015  97.6205 161.8740 0032354 214.8788 145.0307 14.84838208621390"
      },
      "geometry": {
        "type": "Point",
        "coordinates": [
          134.30401123876948,
          74.10021602947411
        ]
      }
    },
    {
      "type": "Feature",
      "properties": {
        "norad_id": 40053,
        "name": "SPOT 7",
        "group": "resource",
        "lat": -4.437898474250432,
        "lon": 59.4201910471311,
        "alt_km": 694.2441172202907,
        "timestamp": "2025-12-22T22:44:20.607839+00:00",
        "meta_object_name": "SPOT 7",
        "meta_object_id": "2014-034A",
        "meta_epoch": "2025-12-22T14:32:22.733952",
        "meta_mean_motion": 14.60745486,
        "meta_eccentricity": 0.00015683,
        "meta_inclination": 98.0896,
        "meta_ra_of_asc_node": 58.454,
        "meta_arg_of_pericenter": 82.9773,
        "meta_mean_anomaly": 277.1606,
        "meta_ephemeris_type": 0,
        "meta_classification_type": "U",
        "meta_norad_cat_id": 40053,
        "meta_element_set_no": 999,
        "meta_rev_at_epoch": 61135,
        "meta_bstar": 0.00012272278,
        "meta_mean_motion_dot": 5.53e-06,
        "meta_mean_motion_ddot": 0,
        "tle_line1": "1 40053U 14034A   25356.60581868  .00000553  00000+0  12272-3 0  9996",
        "tle_line2": "2 40053  98.0896  58.4540 0001568  82.9773 277.1606 14.60745486611356"
      },
      "geometry": {
        "type": "Point",
        "coordinates": [
          59.4201910471311,
          -4.437898474250432
        ]
      }
    },
    {
      "type": "Feature",
      "properties": {
        "norad_id": 40072,
        "name": "SKYSAT-B",
        "group": "resource",
        "lat": -7.300022936347657,
        "lon": 120.11343145257023,
        "alt_km": 608.2227164333481,
        "timestamp": "2025-12-22T22:44:20.607849+00:00",
        "meta_object_name": "SKYSAT-B",
        "meta_object_id": "2014-037D",
        "meta_epoch": "2025-12-21T18:27:09.238752",
        "meta_mean_motion": 14.87356718,
        "meta_eccentricity": 0.00067041,
        "meta_inclination": 98.3624,
        "meta_ra_of_asc_node": 299.9522,
        "meta_arg_of_pericenter": 124.7394,
        "meta_mean_anomaly": 235.4453,
        "meta_ephemeris_type": 0,
        "meta_classification_type": "U",
        "meta_norad_cat_id": 40072,
        "meta_element_set_no": 999,
        "meta_rev_at_epoch": 61958,
        "meta_bstar": 0.00015196295,
        "meta_mean_motion_dot": 1.312e-05,
        "meta_mean_motion_ddot": 0,
        "tle_line1": "1 40072U 14037D   25355.76885693  .00001312  00000+0  15196-3 0  9991",
        "tle_line2": "2 40072  98.3624 299.9522 0006704 124.7394 235.4453 14.87356718619587"
      },
      "geometry": {
        "type": "Point",
        "coordinates": [
          120.11343145257023,
          -7.300022936347657
        ]
      }
    },
    {
      "type": "Feature",
      "properties": {
        "norad_id": 40115,
        "name": "WORLDVIEW-3 (WV-3)",
        "group": "resource",
        "lat": -5.1017056488802695,
        "lon": 69.81061107783052,
        "alt_km": 619.2573858599399,
        "timestamp": "2025-12-22T22:44:20.607859+00:00",
        "meta_object_name": "WORLDVIEW-3 (WV-3)",
        "meta_object_id": "2014-048A",
        "meta_epoch": "2025-12-22T11:26:22.638624",
        "meta_mean_motion": 14.84668916,
        "meta_eccentricity": 0.00018974,
        "meta_inclination": 97.8767,
        "meta_ra_of_asc_node": 68.6373,
        "meta_arg_of_pericenter": 133.2376,
        "meta_mean_anomaly": 226.8997,
        "meta_ephemeris_type": 0,
        "meta_classification_type": "U",
        "meta_norad_cat_id": 40115,
        "meta_element_set_no": 999,
        "meta_rev_at_epoch": 61568,
        "meta_bstar": 0.00011708436,
        "meta_mean_motion_dot": 9.37e-06,
        "meta_mean_motion_ddot": 0,
        "tle_line1": "1 40115U 14048A   25356.47665091  .00000937  00000+0  11708-3 0  9995",
        "tle_line2": "2 40115  97.8767  68.6373 0001897 133.2376 226.8997 14.84668916615682"
      },
      "geometry": {
        "type": "Point",
        "coordinates": [
          69.81061107783052,
          -5.1017056488802695
        ]
      }
    }
  ]
}